STARLINK-36882          
1 67980U 26038V   26085.02140531  .00046834  00000+0  10311-2 0  9998
2 67980  97.2754  95.9136 0005405 345.7113  14.3982 15.43802144  5742
STARLINK-36874          
1 67981U 26038W   26085.16668981 -.03173022  00000+0 -10324+0 0  9994
2 67981  97.2849  96.1138 0002384  87.5078  96.4210 15.36129505  5859
STARLINK-36879          
1 67982U 26038X   26085.19261828  .00058283  00000+0  10644-2 0  9991
2 67982  97.2847  95.9932 0001553  21.4943 338.6373 15.49214169  5768
STARLINK-36867          
1 67983U 26038Y   26085.17934375  .00064541  00000+0  11783-2 0  9993
2 67983  97.2868  96.0126 0002063   7.4616 352.6665 15.49197008  5769
STARLINK-36266          
1 67984U 26038Z   26085.16668981 -.02761005  00000+0 -87395-1 0  9994
2 67984  97.2841  96.1259 0001597  93.3689 119.7581 15.36413035  5827
STARLINK-36802          
1 67985U 26038AA  26084.96739179  .00248730  00000+0  16137-2 0  9998
2 67985  97.2883  96.1384 0002240  86.5544 273.5977 15.75284744  5759
STARLINK-36535          
1 67986U 26039A   26085.16668981 -.02161107  00000+0 -71197-1 0  9997
2 67986  43.0002 316.4749 0001053 264.3413 199.7883 15.34193751  5529
STARLINK-36744          
1 67987U 26039B   26085.16668981 -.02124378  00000+0 -64970-1 0  9998
2 67987  42.9989 316.2920 0001478 263.3126 274.7213 15.36433829  5528
STARLINK-36734          
1 67988U 26039C   26084.94699447  .00069266  00000+0  11757-2 0  9991
2 67988  42.9996 318.5393 0002648 277.8465  82.2094 15.50586382  4170
STARLINK-36957          
1 67989U 26039D   26085.16668981 -.01845575  00000+0 -52123-1 0  9995
2 67989  42.9997 316.2769 0001115 277.8488 267.1947 15.38937180  5520
STARLINK-36951          
1 67990U 26039E   26084.04675806  .00061583  00000+0  10465-2 0  9997
2 67990  43.0018 322.9387 0002967 275.8567  84.1955 15.50598247  4043
STARLINK-36941          
1 67991U 26039F   26084.94637920  .00088314  00000+0  14917-2 0  9999
2 67991  42.9982 318.5356 0002063 268.4126  91.6498 15.50625651  4174
