CCSDS_OMM_VERS = 2.0
CREATION_DATE  = 
ORIGINATOR     = 

OBJECT_NAME    = STARLINK-36882
OBJECT_ID      = 2026-038V
CENTER_NAME    = EARTH
REF_FRAME      = TEME
TIME_SYSTEM    = UTC
MEAN_ELEMENT_THEORY = SGP/SGP4

EPOCH          = 2026-03-26T00:30:49.418784
MEAN_MOTION    = 15.43802144
ECCENTRICITY   = .0005405
INCLINATION    = 97.2754
RA_OF_ASC_NODE = 95.9136
ARG_OF_PERICENTER = 345.7113
MEAN_ANOMALY   = 14.3982

EPHEMERIS_TYPE = 0
CLASSIFICATION_TYPE = U
NORAD_CAT_ID   = 67980
ELEMENT_SET_NO = 999
REV_AT_EPOCH   = 574
BSTAR          = .10311E-2
MEAN_MOTION_DOT = .46834E-3
MEAN_MOTION_DDOT = 0

CCSDS_OMM_VERS = 2.0
CREATION_DATE  = 
ORIGINATOR     = 

OBJECT_NAME    = STARLINK-36874
OBJECT_ID      = 2026-038W
CENTER_NAME    = EARTH
REF_FRAME      = TEME
TIME_SYSTEM    = UTC
MEAN_ELEMENT_THEORY = SGP/SGP4

EPOCH          = 2026-03-26T04:00:01.999584
MEAN_MOTION    = 15.36129505
ECCENTRICITY   = .0002384
INCLINATION    = 97.2849
RA_OF_ASC_NODE = 96.1138
ARG_OF_PERICENTER = 87.5078
MEAN_ANOMALY   = 96.4210

EPHEMERIS_TYPE = 0
CLASSIFICATION_TYPE = U
NORAD_CAT_ID   = 67981
ELEMENT_SET_NO = 999
REV_AT_EPOCH   = 585
BSTAR          = -.10324E+0
MEAN_MOTION_DOT = -.3173022E-1
MEAN_MOTION_DDOT = 0

CCSDS_OMM_VERS = 2.0
CREATION_DATE  = 
ORIGINATOR     = 

OBJECT_NAME    = STARLINK-36879
OBJECT_ID      = 2026-038X
CENTER_NAME    = EARTH
REF_FRAME      = TEME
TIME_SYSTEM    = UTC
MEAN_ELEMENT_THEORY = SGP/SGP4

EPOCH          = 2026-03-26T04:37:22.219392
MEAN_MOTION    = 15.49214169
ECCENTRICITY   = .0001553
INCLINATION    = 97.2847
RA_OF_ASC_NODE = 95.9932
ARG_OF_PERICENTER = 21.4943
MEAN_ANOMALY   = 338.6373

EPHEMERIS_TYPE = 0
CLASSIFICATION_TYPE = U
NORAD_CAT_ID   = 67982
ELEMENT_SET_NO = 999
REV_AT_EPOCH   = 576
BSTAR          = .10644E-2
MEAN_MOTION_DOT = .58283E-3
MEAN_MOTION_DDOT = 0

CCSDS_OMM_VERS = 2.0
CREATION_DATE  = 
ORIGINATOR     = 

OBJECT_NAME    = STARLINK-36867
OBJECT_ID      = 2026-038Y
CENTER_NAME    = EARTH
REF_FRAME      = TEME
TIME_SYSTEM    = UTC
MEAN_ELEMENT_THEORY = SGP/SGP4

EPOCH          = 2026-03-26T04:18:15.300000
MEAN_MOTION    = 15.49197008
ECCENTRICITY   = .0002063
INCLINATION    = 97.2868
RA_OF_ASC_NODE = 96.0126
ARG_OF_PERICENTER = 7.4616
MEAN_ANOMALY   = 352.6665

EPHEMERIS_TYPE = 0
CLASSIFICATION_TYPE = U
NORAD_CAT_ID   = 67983
ELEMENT_SET_NO = 999
REV_AT_EPOCH   = 576
BSTAR          = .11783E-2
MEAN_MOTION_DOT = .64541E-3
MEAN_MOTION_DDOT = 0

CCSDS_OMM_VERS = 2.0
CREATION_DATE  = 
ORIGINATOR     = 

OBJECT_NAME    = STARLINK-36266
OBJECT_ID      = 2026-038Z
CENTER_NAME    = EARTH
REF_FRAME      = TEME
TIME_SYSTEM    = UTC
MEAN_ELEMENT_THEORY = SGP/SGP4

EPOCH          = 2026-03-26T04:00:01.999584
MEAN_MOTION    = 15.36413035
ECCENTRICITY   = .0001597
INCLINATION    = 97.2841
RA_OF_ASC_NODE = 96.1259
ARG_OF_PERICENTER = 93.3689
MEAN_ANOMALY   = 119.7581

EPHEMERIS_TYPE = 0
CLASSIFICATION_TYPE = U
NORAD_CAT_ID   = 67984
ELEMENT_SET_NO = 999
REV_AT_EPOCH   = 582
BSTAR          = -.87395E-1
MEAN_MOTION_DOT = -.2761005E-1
MEAN_MOTION_DDOT = 0

CCSDS_OMM_VERS = 2.0
CREATION_DATE  = 
ORIGINATOR     = 

OBJECT_NAME    = STARLINK-36802
OBJECT_ID      = 2026-038AA
CENTER_NAME    = EARTH
REF_FRAME      = TEME
TIME_SYSTEM    = UTC
MEAN_ELEMENT_THEORY = SGP/SGP4

EPOCH          = 2026-03-25T23:13:02.650656
MEAN_MOTION    = 15.75284744
ECCENTRICITY   = .000224
INCLINATION    = 97.2883
RA_OF_ASC_NODE = 96.1384
ARG_OF_PERICENTER = 86.5544
MEAN_ANOMALY   = 273.5977

EPHEMERIS_TYPE = 0
CLASSIFICATION_TYPE = U
NORAD_CAT_ID   = 67985
ELEMENT_SET_NO = 999
REV_AT_EPOCH   = 575
BSTAR          = .16137E-2
MEAN_MOTION_DOT = .24873E-2
MEAN_MOTION_DDOT = 0

CCSDS_OMM_VERS = 2.0
CREATION_DATE  = 
ORIGINATOR     = 

OBJECT_NAME    = STARLINK-36535
OBJECT_ID      = 2026-039A
CENTER_NAME    = EARTH
REF_FRAME      = TEME
TIME_SYSTEM    = UTC
MEAN_ELEMENT_THEORY = SGP/SGP4

EPOCH          = 2026-03-26T04:00:01.999584
MEAN_MOTION    = 15.34193751
ECCENTRICITY   = .0001053
INCLINATION    = 43.0002
RA_OF_ASC_NODE = 316.4749
ARG_OF_PERICENTER = 264.3413
MEAN_ANOMALY   = 199.7883

EPHEMERIS_TYPE = 0
CLASSIFICATION_TYPE = U
NORAD_CAT_ID   = 67986
ELEMENT_SET_NO = 999
REV_AT_EPOCH   = 552
BSTAR          = -.71197E-1
MEAN_MOTION_DOT = -.2161107E-1
MEAN_MOTION_DDOT = 0

CCSDS_OMM_VERS = 2.0
CREATION_DATE  = 
ORIGINATOR     = 

OBJECT_NAME    = STARLINK-36744
OBJECT_ID      = 2026-039B
CENTER_NAME    = EARTH
REF_FRAME      = TEME
TIME_SYSTEM    = UTC
MEAN_ELEMENT_THEORY = SGP/SGP4

EPOCH          = 2026-03-26T04:00:01.999584
MEAN_MOTION    = 15.36433829
ECCENTRICITY   = .0001478
INCLINATION    = 42.9989
RA_OF_ASC_NODE = 316.2920
ARG_OF_PERICENTER = 263.3126
MEAN_ANOMALY   = 274.7213

EPHEMERIS_TYPE = 0
CLASSIFICATION_TYPE = U
NORAD_CAT_ID   = 67987
ELEMENT_SET_NO = 999
REV_AT_EPOCH   = 552
BSTAR          = -.6497E-1
MEAN_MOTION_DOT = -.2124378E-1
MEAN_MOTION_DDOT = 0

CCSDS_OMM_VERS = 2.0
CREATION_DATE  = 
ORIGINATOR     = 

OBJECT_NAME    = STARLINK-36734
OBJECT_ID      = 2026-039C
CENTER_NAME    = EARTH
REF_FRAME      = TEME
TIME_SYSTEM    = UTC
MEAN_ELEMENT_THEORY = SGP/SGP4

EPOCH          = 2026-03-25T22:43:40.322208
MEAN_MOTION    = 15.50586382
ECCENTRICITY   = .0002648
INCLINATION    = 42.9996
RA_OF_ASC_NODE = 318.5393
ARG_OF_PERICENTER = 277.8465
MEAN_ANOMALY   = 82.2094

EPHEMERIS_TYPE = 0
CLASSIFICATION_TYPE = U
NORAD_CAT_ID   = 67988
ELEMENT_SET_NO = 999
REV_AT_EPOCH   = 417
BSTAR          = .11757E-2
MEAN_MOTION_DOT = .69266E-3
MEAN_MOTION_DDOT = 0

CCSDS_OMM_VERS = 2.0
CREATION_DATE  = 
ORIGINATOR     = 

OBJECT_NAME    = STARLINK-36957
OBJECT_ID      = 2026-039D
CENTER_NAME    = EARTH
REF_FRAME      = TEME
TIME_SYSTEM    = UTC
MEAN_ELEMENT_THEORY = SGP/SGP4

EPOCH          = 2026-03-26T04:00:01.999584
MEAN_MOTION    = 15.38937180
ECCENTRICITY   = .0001115
INCLINATION    = 42.9997
RA_OF_ASC_NODE = 316.2769
ARG_OF_PERICENTER = 277.8488
MEAN_ANOMALY   = 267.1947

EPHEMERIS_TYPE = 0
CLASSIFICATION_TYPE = U
NORAD_CAT_ID   = 67989
ELEMENT_SET_NO = 999
REV_AT_EPOCH   = 552
BSTAR          = -.52123E-1
MEAN_MOTION_DOT = -.1845575E-1
MEAN_MOTION_DDOT = 0

CCSDS_OMM_VERS = 2.0
CREATION_DATE  = 
ORIGINATOR     = 

OBJECT_NAME    = STARLINK-36951
OBJECT_ID      = 2026-039E
CENTER_NAME    = EARTH
REF_FRAME      = TEME
TIME_SYSTEM    = UTC
MEAN_ELEMENT_THEORY = SGP/SGP4

EPOCH          = 2026-03-25T01:07:19.896384
MEAN_MOTION    = 15.50598247
ECCENTRICITY   = .00029674
INCLINATION    = 43.0018
RA_OF_ASC_NODE = 322.9387
ARG_OF_PERICENTER = 275.8567
MEAN_ANOMALY   = 84.1955

EPHEMERIS_TYPE = 0
CLASSIFICATION_TYPE = U
NORAD_CAT_ID   = 67990
ELEMENT_SET_NO = 999
REV_AT_EPOCH   = 404
BSTAR          = .10464842E-2
MEAN_MOTION_DOT = .61583E-3
MEAN_MOTION_DDOT = 0

CCSDS_OMM_VERS = 2.0
CREATION_DATE  = 
ORIGINATOR     = 

OBJECT_NAME    = STARLINK-36941
OBJECT_ID      = 2026-039F
CENTER_NAME    = EARTH
REF_FRAME      = TEME
TIME_SYSTEM    = UTC
MEAN_ELEMENT_THEORY = SGP/SGP4

EPOCH          = 2026-03-25T22:42:47.162880
MEAN_MOTION    = 15.50625651
ECCENTRICITY   = .0002063
INCLINATION    = 42.9982
RA_OF_ASC_NODE = 318.5356
ARG_OF_PERICENTER = 268.4126
MEAN_ANOMALY   = 91.6498

EPHEMERIS_TYPE = 0
CLASSIFICATION_TYPE = U
NORAD_CAT_ID   = 67991
ELEMENT_SET_NO = 999
REV_AT_EPOCH   = 417
BSTAR          = .14917E-2
MEAN_MOTION_DOT = .88314E-3
MEAN_MOTION_DDOT = 0

